address_id,address,address2,district,postal_code,phone,city_id,city,country_id,country
62,1114 Liepaja Street,,Sarawak,69226,212869228936,282,Kuching,59,Malaysia
254,786 Stara Zagora Way,,Oyo & Osun,98332,716256596301,390,Oyo,69,Nigeria
476,270 Tambaram Parkway,,Gauteng,9668,248446668735,244,Johannesburg,85,South Africa
446,1924 Shimonoseki Drive,,Batna,52625,406784385440,59,Batna,2,Algeria
364,1623 Kingstown Drive,,Buenos Aires,91299,296394569728,20,Almirante Brown,6,Argentina
176,29 Pyongyang Loop,,Batman,47753,734780743462,58,Batman,97,Turkey
580,923 Tangail Boulevard,,Tokyo-to,33384,315528269898,10,Akishima,50,Japan
486,64 Korla Street,,Mwanza,25145,510383179153,347,Mwanza,93,Tanzania
321,651 Pathankot Loop,,Maharashtra,59811,139378397418,336,Miraj,44,India
426,1661 Abha Drive,,Tamil Nadu,14400,270456873752,416,Pudukkottai,44,India
347,1293 Nam Dinh Way,,Roraima,71583,697656479977,84,Boa Vista,15,Brazil
297,1192 Tongliao Street,,Sharja,19065,350970907017,470,Sharja,101,United Arab Emirates
411,264 Bhimavaram Manor,,St Thomas,54749,302526949177,111,Charlotte Amalie,106,"Virgin Islands, U.S."
156,1963 Moscow Place,,Assam,64863,761379480249,354,Nagaon,44,India
108,1386 Yangor Avenue,,Provence-Alpes-Cte,80720,449216226468,543,Toulon,34,France
595,1074 Sanaa Parkway,,Loja,22474,154124128457,311,Loja,28,Ecuador
131,801 Hagonoy Drive,,Smolensk,8439,237426099212,484,Smolensk,80,Russian Federation
507,1197 Sokoto Boulevard,,West Bengali,87687,868602816371,478,Siliguri (Shiliguri),44,India
209,1679 Antofagasta Street,,Alto Paran,86599,905903574913,122,Ciudad del Este,73,Paraguay
123,1987 Coacalco de Berriozábal Loop,,al-Qalyubiya,96065,787654415858,476,Shubra al-Khayma,29,Egypt
439,1351 Aparecida de Goiânia Parkway,,Northern Mindanao,41775,959834530529,391,Ozamis,75,Philippines
340,507 Smolensk Loop,,Sousse,22971,80303246192,492,Sousse,96,Tunisia
308,687 Alessandria Parkway,,Sanaa,57587,407218522294,455,Sanaa,107,Yemen
354,953 Hodeida Street,,Southern Tagalog,18841,53912826864,221,Imus,75,Philippines
514,1747 Rustenburg Place,,Bihar,51369,442673923363,110,Chapra,44,India
294,1912 Allende Manor,,Kowloon and New Kowl,58124,172262454487,279,Kowloon and New Kowloon,42,Hong Kong
18,770 Bydgoszcz Avenue,,California,16266,517338314235,120,Citrus Heights,103,United States
282,556 Baybay Manor,,Oyo & Osun,55802,363982224739,374,Ogbomosho,69,Nigeria
90,870 Ashqelon Loop,,Songkhla,84931,135117278909,489,Songkhla,94,Thailand
420,992 Klerksdorp Loop,,Utrecht,33711,855290087237,23,Amersfoort,67,Netherlands
489,1297 Alvorada Parkway,,Ningxia,11839,508348602835,587,Yinchuan,23,China
153,782 Mosul Street,,Massachusetts,25545,885899703621,94,Brockton,103,United States
372,230 Urawa Drive,,Andhra Pradesh,2738,166898395731,8,Adoni,44,India
146,483 Ljubertsy Parkway,,Scotland,60562,581174211853,149,Dundee,102,United Kingdom
204,387 Mwene-Ditu Drive,,Ahal,8073,764477681869,35,Ashgabat,98,Turkmenistan
589,1584 Ljubertsy Lane,,England,22954,285710089439,494,Southampton,102,United Kingdom
304,1635 Kuwana Boulevard,,Hiroshima,52137,710603868323,205,Hiroshima,50,Japan
263,532 Toulon Street,,Santiago,69517,46871694740,460,Santiago de los Caballeros,27,Dominican Republic
244,1148 Saarbrücken Parkway,,Fukushima,1921,137773001988,226,Iwaki,50,Japan
378,1191 Tandil Drive,,Southern Tagalog,6362,45554316010,523,Tanauan,75,Philippines
397,614 Pak Kret Street,,Addis Abeba,27796,47808359842,6,Addis Abeba,31,Ethiopia
70,1150 Kimchon Manor,,Skne ln,96109,663449333709,321,Malmö,90,Sweden
129,569 Baicheng Lane,,Gauteng,60304,490211944645,85,Boksburg,85,South Africa
576,1351 Sousse Lane,,Coahuila de Zaragoza,37815,203804046132,341,Monclova,60,Mexico
175,316 Uruapan Street,,Perak,58194,275788967899,223,Ipoh,59,Malaysia
14,1531 Salé Drive,,Esfahan,53628,648856936185,162,Esfahan,46,Iran
534,486 Ondo Parkway,,Benguela,35202,105882218332,67,Benguela,4,Angola
64,81 Hodeida Way,,Rajasthan,55561,250767749542,231,Jaipur,44,India
178,1848 Salala Boulevard,,Miranda,25220,48265851133,373,Ocumare del Tuy,104,Venezuela
250,829 Grand Prairie Way,,Paraná,6461,741070712873,328,Maringá,15,Brazil
224,1842 Luziânia Boulevard,,Zanzibar West,94420,706878974831,593,Zanzibar,93,Tanzania
315,543 Bergamo Avenue,,Minas Gerais,59686,103602195112,215,Ibirité,15,Brazil
6,1121 Loja Avenue,,California,17886,838635286649,449,San Bernardino,103,United States
485,984 Novotšerkassk Loop,,Gaziantep,28165,435118527255,180,Gaziantep,97,Turkey
183,1089 Iwatsuki Avenue,,Kirov,35109,866092335135,270,Kirovo-Tšepetsk,80,Russian Federation
288,226 Halifax Street,,Xinxiang,58492,790651020929,277,Korla,23,China
58,1964 Allappuzha (Alleppey) Street,,Yamaguchi,48980,920811325222,227,Iwakuni,50,Japan
574,502 Mandi Bahauddin Parkway,,Anzotegui,15992,618156722572,55,Barcelona,104,Venezuela
170,710 San Felipe del Progreso Avenue,,Lilongwe,76901,843801144113,304,Lilongwe,58,Malawi
523,608 Birgunj Parkway,,Taipei,400,627425618482,116,Chungho,92,Taiwan
419,397 Sunnyvale Avenue,,Guanajuato,55566,680851640676,19,Allende,60,Mexico
338,431 Székesfehérvár Avenue,,Baki,57828,119501405123,48,Baku,10,Azerbaijan
520,1778 Gijón Manor,,Hubei,35156,288910576761,594,Zaoyang,23,China
194,605 Rio Claro Parkway,,Tabora,49348,352469351088,513,Tabora,93,Tanzania
85,320 Baiyin Parkway,,Mahajanga,37307,223664661973,319,Mahajanga,57,Madagascar
522,1768 Udine Loop,,Battambang,32347,448876499197,60,Battambang,18,Cambodia
134,758 Junan Lane,,Gois,82639,935448624185,190,Águas Lindas de Goiás,15,Brazil
361,45 Aparecida de Goiânia Place,,Madhya Pradesh,7431,650496654258,464,Satna,44,India
260,127 Iwakuni Boulevard,,Central Luzon,20777,987442542471,192,Hagonoy,75,Philippines
384,97 Mogiljov Lane,,Gujarat,89294,924815207181,73,Bhavnagar,44,India
382,220 Hidalgo Drive,,Kermanshah,45298,342720754566,265,Kermanshah,46,Iran
535,635 Brest Manor,,Andhra Pradesh,40899,80593242951,75,Bhimavaram,44,India
404,734 Béchar Place,,Punjab,30586,280578750435,375,Okara,72,Pakistan
199,1792 Valle de la Pascua Place,,Nordrhein-Westfalen,15540,419419591240,477,Siegen,38,Germany
322,1359 Zhoushan Parkway,,Streymoyar,29763,46568045367,545,Tórshavn,32,Faroe Islands
311,715 São Bernardo do Campo Lane,,Kedah,84804,181179321332,507,Sungai Petani,59,Malaysia
472,1447 Chatsworth Place,,Chihuahua,41545,769370126331,129,Cuauhtémoc,60,Mexico
448,614 Denizli Parkway,,Rio Grande do Sul,29444,876491807547,486,São Leopoldo,15,Brazil
579,521 San Juan Bautista Tuxtepec Place,,Qaraghandy,95093,844018348565,598,Zhezqazghan,51,Kazakstan
201,817 Bradford Loop,,Ji´angsu,89459,264286442804,109,Changzhou,23,China
403,1190 0 Place,,Rio Grande do Sul,10417,841876514789,44,Bagé,15,Brazil
197,447 Surakarta Loop,,Nyanza,10428,940830176580,271,Kisumu,52,Kenya
271,1587 Loja Manor,,Salzburg,5410,621625204422,447,Salzburg,9,Austria
481,1153 Allende Way,,Québec,20336,856872225376,179,Gatineau,20,Canada
215,1333 Haldia Street,,Jilin,82161,408304391718,174,Fuyu,23,China
2,28 MySQL Boulevard,,QLD,,,576,Woodridge,8,Australia
570,415 Pune Avenue,,Shandong,44274,203202500108,580,Xintai,23,China
418,126 Acuña Parkway,,West Bengali,58888,480039662421,71,Berhampore (Baharampur),44,India
46,1632 Bislig Avenue,,Nonthaburi,61117,471675840679,394,Pak Kret,94,Thailand
227,1820 Maringá Parkway,,Punjab,88307,99760893676,324,Mandi Bahauddin,72,Pakistan
99,1697 Tanauan Lane,,Punjab,22870,4764773857,399,Pathankot,44,India
290,1336 Benin City Drive,,Shiga,46044,341242939532,386,Otsu,50,Japan
375,1049 Matamoros Parkway,,Karnataka,69640,960505250340,191,Gulbarga,44,India
139,943 Johannesburg Avenue,,Maharashtra,5892,90921003005,417,Pune,44,India
216,660 Jedda Boulevard,,Washington,25053,168758068397,65,Bellevue,103,United States
106,659 Vaduz Drive,,Ha Darom,49708,709935135487,34,Ashdod,48,Israel
582,1568 Celaya Parkway,,Kaohsiung,34750,278669994384,168,Fengshan,92,Taiwan
475,434 Ourense (Orense) Manor,,Hodeida,14122,562370137426,206,Hodeida,107,Yemen
549,454 Qinhuangdao Drive,,Tadla-Azilal,25866,786270036240,68,Beni-Mellal,62,Morocco
158,798 Cianjur Avenue,,Shanxi,76990,499408708580,590,Yuncheng,23,China
65,915 Ponce Place,,Basel-Stadt,83980,1395251317,56,Basel,91,Switzerland
246,1246 Boksburg Parkway,,Hebei,28349,890283544295,422,Qinhuangdao,23,China
451,1704 Tambaram Manor,,West Bengali,2834,39463554936,554,Uluberia,44,India
524,680 A Coruña (La Coruña) Manor,,Sivas,49806,158326114853,482,Sivas,97,Turkey
166,1740 Le Mans Loop,,Pays de la Loire,22853,168476538960,297,Le Mans,34,France
293,86 Higashiosaka Lane,,Guanajuato,33768,957128697225,563,Valle de Santiago,60,Mexico
160,1367 Yantai Manor,,Ondo & Ekiti,21294,889538496300,381,Ondo,69,Nigeria
563,1059 Yuncheng Avenue,,Vilna,47498,107092893983,570,Vilnius,56,Lithuania
495,656 Matamoros Drive,,Boyac,19489,17305839123,487,Sogamoso,24,Colombia
386,1368 Maracaíbo Boulevard,,,32716,934352415130,493,South Hill,5,Anguilla
202,955 Bamenda Way,,Ondo & Ekiti,1545,768481779568,218,Ikerre,69,Nigeria
72,57 Arlington Manor,,Madhya Pradesh,48960,990214419142,475,Shivapuri,44,India
19,419 Iligan Lane,,Madhya Pradesh,72878,990911107354,76,Bhopal,44,India
44,671 Graz Street,,Oriental,94399,680768868518,353,Nador,62,Morocco
449,1289 Belém Boulevard,,Tartumaa,88306,237368926031,530,Tartu,30,Estonia
93,1926 El Alto Avenue,,Buenos Aires,75543,846225459260,289,La Plata,6,Argentina
214,751 Lima Loop,,Aden,99405,756460337785,7,Aden,107,Yemen
109,454 Nakhon Sawan Boulevard,,Funafuti,76383,963887147572,173,Funafuti,99,Tuvalu
61,943 Tokat Street,,Vaduz,45428,889318963672,560,Vaduz,55,Liechtenstein
208,1215 Pyongyang Parkway,,Usak,25238,646237101779,557,Usak,97,Turkey
405,530 Lausanne Lane,,Texas,11067,775235029633,135,Dallas,103,United States
352,1673 Tangail Drive,,Daugavpils,26857,627924259271,137,Daugavpils,54,Latvia
296,1936 Cumaná Avenue,,Virginia,61195,976798660411,433,Roanoke,103,United States
96,984 Effon-Alaiye Avenue,,Gois,17119,132986892228,183,Goiânia,15,Brazil
284,600 Bradford Street,,East Azerbaidzan,96204,117592274996,514,Tabriz,46,Iran
83,586 Tete Way,,Kanagawa,1079,18581624103,256,Kamakura,50,Japan
600,1837 Kaduna Parkway,,Inner Mongolia,82580,640843562301,241,Jining,23,China
469,1872 Toulon Loop,,OHiggins,7939,928809465153,428,Rancagua,22,Chile
412,1639 Saarbrücken Drive,,North West,9827,328494873422,437,Rustenburg,85,South Africa
584,1819 Alessandria Loop,,Campeche,53829,377633994405,103,Carmen,60,Mexico
182,1891 Rizhao Boulevard,,São Paulo,47288,391065549876,456,Santa Bárbara d´Oeste,15,Brazil
325,1892 Nabereznyje Tšelny Lane,,Tutuila,28396,478229987054,516,Tafuna,3,American Samoa
387,401 Sucre Boulevard,,New Hampshire,25007,486395999608,322,Manchester,103,United States
585,1208 Tama Loop,,Ninawa,73605,954786054144,344,Mosul,47,Iraq
368,1658 Jastrzebie-Zdrój Loop,,Central,96584,568367775448,372,Nyeri,52,Kenya
355,469 Nakhon Sawan Street,,Tuvassia,58866,689199636560,531,Tšeboksary,80,Russian Federation
221,866 Shivapuri Manor,,Uttar Pradesh,22474,778502731092,448,Sambhal,44,India
152,1952 Pune Lane,,Saint-Denis,92150,354615066969,442,Saint-Denis,79,Réunion
285,1006 Santa Bárbara d´Oeste Manor,,Ondo & Ekiti,36229,85059738746,389,Owo,69,Nigeria
351,1157 Nyeri Loop,,Adygea,56380,262744791493,320,Maikop,80,Russian Federation
82,936 Salzburg Lane,,Uttar Pradesh,96709,875756771675,425,Rae Bareli,44,India
417,791 Salinas Street,,Punjab,40509,129953030512,208,Hoshiarpur,44,India
8,1566 Inegöl Manor,,Mandalay,53561,705814003527,349,Myingyan,64,Myanmar
381,1618 Olomouc Manor,,Kurgan,26385,96846695220,285,Kurgan,80,Russian Federation
431,1596 Acuña Parkway,,Jharkhand,70425,157133457169,418,Purnea (Purnia),44,India
505,519 Brescia Parkway,,East Java,69504,793996678771,318,Madiun,45,Indonesia
167,1287 Xi´angfan Boulevard,,Gifu,57844,819416131190,253,Kakamigahara,50,Japan
317,780 Kimberley Way,,Tabuk,17032,824396883951,515,Tabuk,82,Saudi Arabia
222,1168 Najafabad Parkway,,Kabol,40301,886649065861,251,Kabul,1,Afghanistan
432,259 Ipoh Drive,,São Paulo,64964,419009857119,189,Guarujá,15,Brazil
452,207 Cuernavaca Loop,,Tatarstan,52671,782900030287,352,Nabereznyje Tšelny,80,Russian Federation
252,1309 Weifang Street,,Florida,57338,435785045362,520,Tallahassee,103,United States
457,535 Ahmadnagar Manor,,Abu Dhabi,41136,985109775584,3,Abu Dhabi,101,United Arab Emirates
59,1697 Kowloon and New Kowloon Loop,,Moskova,57807,499352017190,49,Balašiha,80,Russian Federation
357,1641 Changhwa Place,,Nord-Ouest,37636,256546485220,52,Bamenda,19,Cameroon
137,261 Saint Louis Way,,Coahuila de Zaragoza,83401,321944036800,541,Torreón,60,Mexico
326,470 Boksburg Street,,Central,97960,908029859266,81,Birgunj,66,Nepal
370,1565 Tangail Manor,,Okinawa,45750,634445428822,377,Okinawa,50,Japan
37,127 Purnea (Purnia) Manor,,Piemonte,79388,911872220378,17,Alessandria,49,Italy
283,457 Tongliao Loop,,Bursa,56254,880756161823,222,Inegöl,97,Turkey
437,1766 Almirante Brown Street,,KwaZulu-Natal,63104,617567598243,364,Newcastle,85,South Africa
393,717 Changzhou Lane,,Southern Tagalog,21615,426255288071,104,Cavite,75,Philippines
339,503 Sogamoso Loop,,Sumqayit,49812,834626715837,505,Sumqayit,10,Azerbaijan
575,1052 Pathankot Avenue,,Sichuan,77397,128499386727,299,Leshan,23,China
313,1191 Sungai Petani Boulevard,,Missouri,9668,983259819766,262,Kansas City,103,United States
596,1759 Niznekamsk Avenue,,al-Manama,39414,864392582257,14,al-Manama,11,Bahrain
87,929 Tallahassee Loop,,Gauteng,74671,800716535041,497,Springs,85,South Africa
265,1158 Mandi Bahauddin Parkway,,Shanxi,98484,276555730211,136,Datong,23,China
396,767 Pyongyang Drive,,Osaka,83536,667736124769,229,Izumisano,50,Japan
234,1256 Bislig Boulevard,,Botosani,50598,479007229460,86,Botosani,78,Romania
542,193 Bhusawal Place,,Kang-won,9750,745267607502,539,Tonghae,86,South Korea
78,1206 Dos Quebradas Place,,São Paulo,20207,241832790687,431,Rio Claro,15,Brazil
440,722 Bradford Lane,,Shandong,90920,746251338300,249,Junan,23,China
292,1993 Tabuk Lane,,Tamil Nadu,64221,648482415405,522,Tambaram,44,India
278,144 South Hill Loop,,Guanajuato,2012,45387294817,445,Salamanca,60,Mexico
515,886 Tonghae Place,,Volgograd,19450,711928348157,259,Kamyšin,80,Russian Federation
597,32 Liaocheng Way,,Minas Gerais,1944,410877354933,248,Juiz de Fora,15,Brazil
335,587 Benguela Manor,,Illinois,91590,165450987037,42,Aurora,103,United States
117,1079 Tel Aviv-Jaffa Boulevard,,Sucre,10885,358178933857,132,Cumaná,104,Venezuela
316,746 Joliet Lane,,Kursk,94878,688485191923,286,Kursk,80,Russian Federation
73,1031 Daugavpils Parkway,,Béchar,59025,107137400143,63,Béchar,2,Algeria
22,320 Brest Avenue,,Kaduna,43331,747791594069,252,Kaduna,69,Nigeria
89,1557 Kütahya Boulevard,,England,88002,720998247660,88,Bradford,102,United Kingdom
500,362 Rajkot Lane,,Gansu,98030,962020153680,47,Baiyin,23,China
564,505 Madiun Boulevard,,Dolnoslaskie,97271,970638808606,577,Wroclaw,76,Poland
274,920 Kumbakonam Loop,,California,75090,685010736240,446,Salinas,103,United States
107,1177 Jelets Way,,Kwara & Kogi,3305,484292626944,220,Ilorin,69,Nigeria
414,1936 Lapu-Lapu Parkway,,Bauchi & Gombe,7122,653436985797,141,Deba Habe,69,Nigeria
464,76 Kermanshah Manor,,Esfahan,23343,762361821578,423,Qomsheh,46,Iran
91,1740 Portoviejo Avenue,,Sucre,29932,198123170793,480,Sincelejo,24,Colombia
81,1692 Ede Loop,,São Paulo,9223,918711376618,30,Araçatuba,15,Brazil
365,1009 Zanzibar Lane,,Arecibo,64875,102396298916,32,Arecibo,77,Puerto Rico
320,1542 Lubumbashi Boulevard,,Tel Aviv,62472,508800331065,57,Bat Yam,48,Israel
318,1774 Yaoundé Place,,Hubei,91400,613124286867,166,Ezhou,23,China
48,1998 Halifax Drive,,Lipetsk,76022,177727722820,308,Lipetsk,80,Russian Federation
229,1014 Loja Manor,,Tamil Nadu,66851,460795526514,22,Ambattur,44,India
300,661 Chisinau Lane,,Pietari,8856,816436065431,274,Kolpino,80,Russian Federation
400,1152 Citrus Heights Manor,,al-Qadarif,5239,765957414528,15,al-Qadarif,89,Sudan
441,983 Santa Fé Way,,British Colombia,47472,145720452260,565,Vancouver,20,Canada
353,381 Kabul Way,,Taipei,87272,55477302294,209,Hsichuh,92,Taiwan
312,1354 Siegen Street,,Rio de Janeiro,80184,573441801529,25,Angra dos Reis,15,Brazil
349,1516 Escobar Drive,,Tongatapu,46069,64536069371,370,Nuku´alofa,95,Tonga
458,138 Caracas Boulevard,,Zulia,16790,974433019532,326,Maracaíbo,104,Venezuela
358,1698 Southport Loop,,Hidalgo,49009,754358349853,393,Pachuca de Soto,60,Mexico
159,185 Novi Sad Place,,Bern,41778,904253967161,72,Bern,91,Switzerland
84,1888 Kabul Drive,,Oyo & Osun,20936,701457319790,217,Ife,69,Nigeria
519,962 Tama Loop,,,65952,282667506728,583,Yangor,65,Nauru
206,642 Nador Drive,,Maharashtra,3924,369050085652,77,Bhusawal,44,India
536,166 Jinchang Street,,Buenos Aires,86760,717566026669,165,Ezeiza,6,Argentina
299,32 Pudukkottai Lane,,Ohio,38834,967274728547,140,Dayton,103,United States
516,1574 Goiânia Boulevard,,Heilongjiang,39529,59634255214,502,Suihua,23,China
461,1889 Valparai Way,,Ziguinchor,75559,670370974122,600,Ziguinchor,83,Senegal
380,1519 Santiago de los Caballeros Loop,,East Kasai,22025,409315295763,348,Mwene-Ditu,25,"Congo, The Democratic Republic of the"
68,1966 Amroha Avenue,,Sichuan,70385,333489324603,139,Daxian,23,China
255,1966 Tonghae Street,,Anhalt Sachsen,36481,567359279425,198,Halle/Saale,38,Germany
228,60 Poços de Caldas Street,,Rajasthan,82338,963063788669,243,Jodhpur,44,India
373,1922 Miraj Way,,Esfahan,13203,320471479776,356,Najafabad,46,Iran
548,1658 Cumaná Loop,,Sumatera Selatan,51309,784907335610,396,Pangkal Pinang,45,Indonesia
190,435 0 Way,,West Bengali,74750,760171523969,195,Haldia,44,India
532,1427 Tabuk Place,,Florida,31342,214756839122,101,Cape Coral,103,United States
527,1993 0 Loop,,Liaoning,41214,25865528181,588,Yingkou,23,China
560,1447 Imus Place,,Gujarat,12905,62127829280,426,Rajkot,44,India
465,734 Tanshui Avenue,,Caquet,70664,366776723320,170,Florencia,24,Colombia
544,183 Haiphong Street,,Jilin,69953,488600270038,46,Baicheng,23,China
25,262 A Coruña (La Coruña) Parkway,,Dhaka,34418,892775750063,525,Tangail,12,Bangladesh
27,1780 Hino Boulevard,,Liepaja,7716,902731229323,303,Liepaja,54,Latvia
399,331 Bydgoszcz Parkway,,Asturia,966,537374465982,181,Gijón,87,Spain
127,117 Boa Vista Way,,Uttar Pradesh,6804,677976133614,566,Varanasi (Benares),44,India
341,1920 Weifang Avenue,,Uttar Pradesh,15643,869507847714,427,Rampur,44,India
314,1224 Huejutla de Reyes Boulevard,,Lombardia,70923,806016930576,91,Brescia,49,Italy
138,765 Southampton Drive,,al-Qalyubiya,4285,23712411567,421,Qalyub,29,Egypt
4,1411 Lillydale Drive,,QLD,,6172235589,576,Woodridge,8,Australia
24,1688 Okara Way,,Nothwest Border Prov,21954,144453869132,327,Mardan,72,Pakistan
561,1497 Fengshan Drive,,KwaZulu-Natal,63022,368738360376,112,Chatsworth,85,South Africa
537,958 Sagamihara Lane,,Mie,88408,427274926505,287,Kuwana,50,Japan
463,935 Aden Boulevard,,Central Java,64709,335052544020,532,Tegal,45,Indonesia
445,495 Bhimavaram Lane,,Maharashtra,3,82088937724,144,Dhule (Dhulia),44,India
195,1077 San Felipe de Puerto Plata Place,,Rostov-na-Donu,65387,812824036424,369,Novotšerkassk,80,Russian Federation
43,306 Antofagasta Place,,Esprito Santo,3989,378318851631,569,Vila Velha,15,Brazil
280,1980 Kamjanets-Podilskyi Street,,Illinois,89502,874337098891,404,Peoria,103,United States
15,1542 Tarlac Parkway,,Kanagawa,1027,635297277345,440,Sagamihara,50,Japan
173,1294 Firozabad Drive,,Ji´angxi,70618,161801569569,407,Pingxiang,23,China
217,1001 Miyakonojo Lane,,Taizz,67924,584316724815,518,Taizz,107,Yemen
150,879 Newcastle Way,,Michigan,90732,206841104594,499,Sterling Heights,103,United States
63,1213 Ranchi Parkway,,Karnataka,94352,800024380485,350,Mysore,44,India
337,1838 Tabriz Lane,,Dhaka,1195,38988715447,143,Dhaka,12,Bangladesh
12,478 Joliet Way,,Hamilton,77948,657282285970,200,Hamilton,68,New Zealand
92,1942 Ciparay Parkway,,Cheju,82624,978987363654,113,Cheju,86,South Korea
526,617 Klerksdorp Place,,Khanh Hoa,94707,574973479129,366,Nha Trang,105,Vietnam
497,1013 Tabuk Boulevard,,West Bengali,96203,158399646978,261,Kanchrapara,44,India
551,182 Nuku´alofa Drive,,Sumy,15414,426346224043,275,Konotop,100,Ukraine
533,556 Asunción Way,,Mogiljov,35364,338244023543,339,Mogiljov,13,Belarus
599,1895 Zhezqazghan Drive,,California,36693,137809746111,177,Garden Grove,103,United States
483,632 Usolje-Sibirskoje Parkway,,Ha Darom,73085,667648979883,36,Ashqelon,48,Israel
586,951 Springs Lane,,Central Mindanao,96115,165164761435,219,Iligan,75,Philippines
395,1337 Mit Ghamr Avenue,,Nakhon Sawan,29810,175283210378,358,Nakhon Sawan,94,Thailand
539,1332 Gaziantep Lane,,Shandong,22813,383353187467,80,Binzhou,23,China
555,1764 Jalib al-Shuyukh Parkway,,Galicia,77642,84794532510,459,Santiago de Compostela,87,Spain
467,1621 Tongliao Avenue,,Irkutsk,22173,209342540247,558,Usolje-Sibirskoje,80,Russian Federation
130,1666 Qomsheh Drive,,São Paulo,66255,582835362905,410,Poá,15,Brazil
53,725 Isesaki Place,,Mekka,74428,876295323994,237,Jedda,82,Saudi Arabia
540,949 Allende Lane,,Uttar Pradesh,67521,122981120653,24,Amroha,44,India
242,1964 Gijón Manor,,Karnataka,14408,918119601885,473,Shimoga,44,India
493,184 Mandaluyong Street,,Baja California Sur,94239,488425406814,288,La Paz,60,Mexico
279,1884 Shikarpur Avenue,,Haryana,85548,959949395183,263,Karnal,44,India
31,217 Botshabelo Place,,Southern Mindanao,49521,665356572025,138,Davao,75,Philippines
546,191 José Azueta Parkway,,Ruse,13629,932156667696,436,Ruse,17,Bulgaria
125,211 Chiayi Drive,,Uttar Pradesh,58186,665993880048,164,Etawah,44,India
174,1877 Ezhou Lane,,Rajasthan,63337,264541743403,550,Udaipur,44,India
478,1078 Stara Zagora Drive,,Aceh,69221,932992626595,301,Lhokseumawe,45,Indonesia
241,647 A Coruña (La Coruña) Street,,Chollanam,36971,792557457753,357,Naju,86,South Korea
97,832 Nakhon Sawan Manor,,Inner Mongolia,49021,275595571388,592,Zalantun,23,China
54,115 Hidalgo Parkway,,Khartum,80168,307703950263,379,Omdurman,89,Sudan
262,771 Yaoundé Manor,,Sofala,86768,245477603573,64,Beira,63,Mozambique
298,44 Najafabad Way,,Baskimaa,61391,96604821070,146,Donostia-San Sebastián,87,Spain
226,810 Palghat (Palakkad) Boulevard,,Jaroslavl,73431,516331171356,235,Jaroslavl,80,Russian Federation
484,98 Pyongyang Boulevard,,Ohio,88749,191958435142,11,Akron,103,United States
35,33 Gorontalo Way,,West Bengali,30348,745994947458,257,Kamarhati,44,India
521,568 Dhule (Dhulia) Loop,,Coquimbo,92568,602101369463,127,Coquimbo,22,Chile
192,1166 Changhwa Street,,Caraga,58852,650752094490,62,Bayugan,75,Philippines
477,1786 Salinas Place,,Nam Ha,66546,206060652238,359,Nam Dinh,105,Vietnam
34,1668 Anápolis Street,,Taipei,50199,525255540978,316,Lungtan,92,Taiwan
188,741 Ambattur Manor,,Noord-Brabant,43310,302590383819,438,´s-Hertogenbosch,67,Netherlands
422,289 Santo André Manor,,al-Sharqiya,72410,214976066017,16,al-Qatif,82,Saudi Arabia
38,61 Tama Street,,Okayama,94065,708403338270,284,Kurashiki,50,Japan
407,1346 Mysore Drive,,Bretagne,61507,516647474029,92,Brest,34,France
7,692 Joliet Street,,Attika,83579,448477190408,38,Athenai,39,Greece
401,168 Cianjur Manor,,Saitama,73824,679095087143,228,Iwatsuki,50,Japan
212,624 Oshawa Boulevard,,West Bengali,89959,49677664184,51,Balurghat,44,India
200,1074 Binzhou Manor,,Baden-Wrttemberg,36490,331132568928,325,Mannheim,38,Germany
388,368 Huánuco Boulevard,,Namibe,17165,106439158941,360,Namibe,4,Angola
468,1844 Usak Avenue,,Nova Scotia,84461,164414772677,196,Halifax,20,Canada
470,1088 Ibirité Place,,Jalisco,88502,49084281333,595,Zapopan,60,Mexico
249,300 Junan Street,,Kyonggi,81314,890289150158,553,Uijongbu,86,South Korea
51,686 Garland Manor,,Cear,52535,69493378813,247,Juazeiro do Norte,15,Brazil
379,1133 Rizhao Avenue,,Pernambuco,2800,600264533987,572,Vitória de Santo Antão,15,Brazil
124,241 Mosul Lane,,Risaralda,76157,765345144779,147,Dos Quebradas,24,Colombia
303,898 Jining Lane,,Pohjois-Pohjanmaa,40070,161643343536,387,Oulu,33,Finland
116,793 Cam Ranh Avenue,,California,87057,824370924746,292,Lancaster,103,United States
499,1954 Kowloon and New Kowloon Way,,Chimborazo,63667,898559280434,434,Ríobamba,28,Ecuador
398,954 Lapu-Lapu Way,,Moskova,8816,737229003916,278,Korolev,80,Russian Federation
148,1027 Songkhla Manor,,Minsk,30861,563660187896,340,Molodetšno,13,Belarus
76,89 Allappuzha (Alleppey) Manor,,National Capital Reg,75444,255800440636,517,Taguig,75,Philippines
86,927 Bahía Blanca Parkway,,Krim,9495,821972242086,479,Simferopol,100,Ukraine
286,1308 Sumy Loop,,Fujian,30657,583021225407,175,Fuzhou,23,China
219,1229 Valencia Parkway,,Haskovo,99124,352679173732,498,Stara Zagora,17,Bulgaria
203,1149 A Coruña (La Coruña) Boulevard,,Haiphong,95824,470884141195,194,Haiphong,105,Vietnam
509,786 Matsue Way,,Illinois,37469,111177206479,245,Joliet,103,United States
79,1551 Rampur Lane,,Changhwa,72394,251164340471,108,Changhwa,92,Taiwan
433,1823 Hoshiarpur Lane,,Komi,33191,307133768620,510,Syktyvkar,80,Russian Federation
402,616 Hagonoy Avenue,,Krasnojarsk,46043,604177838256,39,Atšinsk,80,Russian Federation
603,1103 Quilmes Boulevard,,Piura,52137,644021380889,503,Sullana,74,Peru
230,201 Effon-Alaiye Way,,Asunción,64344,684192903087,37,Asunción,73,Paraguay
273,1519 Ilorin Place,,Kerala,49298,357445645426,395,Palghat (Palakkad),44,India
530,1003 Qinhuangdao Street,,West Java,25972,35533115997,419,Purwakarta,45,Indonesia
307,1908 Gaziantep Place,,Liaoning,58979,108053751300,536,Tiefa,23,China
366,114 Jalib al-Shuyukh Manor,,Centre,60440,845378657301,585,Yaoundé,19,Cameroon
235,954 Kimchon Place,,West Bengali,42420,541327526474,559,Uttarpara-Kotrung,44,India
56,939 Probolinggo Loop,,Galicia,4166,680428310138,1,A Coruña (La Coruña),87,Spain
239,98 Stara Zagora Boulevard,,Valle,76448,610173756082,96,Buenaventura,24,Colombia
103,588 Vila Velha Manor,,Kyongsangbuk,51540,333339908719,268,Kimchon,86,South Korea
547,379 Lublin Parkway,,Toscana,74568,921960450089,309,Livorno,49,Italy
528,1176 Southend-on-Sea Manor,,Southern Tagalog,81651,236679267178,458,Santa Rosa,75,Philippines
450,203 Tambaram Street,,Buenos Aires,73942,411549550611,161,Escobar,6,Argentina
253,1760 Oshawa Manor,,Tianjin,38140,56257502250,535,Tianjin,23,China
10,1795 Santiago de Compostela Way,,Texas,18743,860452626434,295,Laredo,103,United States
218,226 Brest Manor,,California,2299,785881412500,508,Sunnyvale,103,United States
306,1883 Maikop Lane,,Kaliningrad,68469,96110042435,254,Kaliningrad,80,Russian Federation
21,270 Toulon Boulevard,,Kalmykia,81766,407752414682,156,Elista,80,Russian Federation
165,97 Shimoga Avenue,,Tel Aviv,44660,177167004331,533,Tel Aviv-Jaffa,48,Israel
577,1501 Pangkal Pinang Avenue,,Mazowieckie,943,770864062795,409,Plock,76,Poland
588,966 Asunción Way,,Hidalgo,62703,995527378381,212,Huejutla de Reyes,60,Mexico
30,18 Duisburg Boulevard,,,58327,998009777982,121,Città del Vaticano,41,Holy See (Vatican City State)
47,1447 Imus Way,,Tahiti,48942,539758313890,167,Faaa,36,French Polynesia
578,1405 Hagonoy Avenue,,Slaskie,86587,867287719310,133,Czestochowa,76,Poland
301,951 Stara Zagora Manor,,Punjab,98573,429925609431,400,Patiala,44,India
392,514 Ife Way,,Shaba,69973,900235712074,315,Lubumbashi,25,"Congo, The Democratic Republic of the"
223,1244 Allappuzha (Alleppey) Place,,Buenos Aires,20657,991802825778,567,Vicente López,6,Argentina
428,1727 Matamoros Place,,Sawhaj,78813,129673677866,465,Sawhaj,29,Egypt
558,904 Clarksville Drive,,Zhejiang,52234,955349440539,193,Haining,23,China
360,619 Huánuco Avenue,,Shimane,81508,142596392389,331,Matsue,50,Japan
482,808 Naçala-Porto Parkway,,England,41060,553452430707,500,Stockport,102,United Kingdom
587,760 Miyakonojo Drive,,Guerrero,64682,294449058179,246,José Azueta,60,Mexico
309,827 Yuncheng Drive,,Callao,79047,504434452842,99,Callao,74,Peru
180,757 Rustenburg Avenue,,Skikda,89668,506134035434,483,Skikda,2,Algeria
154,781 Shimonoseki Drive,,Michoacn de Ocampo,95444,632316273199,202,Hidalgo,60,Mexico
415,432 Garden Grove Street,,Ontario,65630,615964523510,430,Richmond Hill,20,Canada
593,1402 Zanzibar Boulevard,,Guanajuato,71102,387448063440,106,Celaya,60,Mexico
210,1304 ´s-Hertogenbosch Way,,Santa Catarina,10925,90336226227,83,Blumenau,15,Brazil
525,1949 Sanya Street,,Gumma,61244,132100972047,224,Isesaki,50,Japan
328,479 San Felipe del Progreso Avenue,,Morelos,54949,869051782691,130,Cuautla,60,Mexico
323,1769 Iwaki Lane,,Kujawsko-Pomorskie,25787,556100547674,97,Bydgoszcz,76,Poland
52,909 Garland Manor,,Tatarstan,69367,705800322606,367,Niznekamsk,80,Russian Federation
324,1145 Vilnius Manor,,Mxico,73170,674805712553,451,San Felipe del Progreso,60,Mexico
556,346 Cam Ranh Avenue,,Zhejiang,39976,978430786151,599,Zhoushan,23,China
32,1425 Shikarpur Manor,,Bihar,65599,678220867005,346,Munger (Monghyr),44,India
144,1666 Beni-Mellal Place,,Tennessee,13377,9099941466,123,Clarksville,103,United States
590,247 Jining Parkway,,Banjul,53446,170115379190,54,Banjul,37,Gambia
240,1479 Rustenburg Boulevard,,Southern Tagalog,18727,727785483194,527,Tanza,75,Philippines
406,454 Patiala Lane,,Fukushima,13496,794553031307,276,Koriyama,50,Japan
490,1909 Dayton Avenue,,Guangdong,88513,702955450528,469,Shaoguan,23,China
169,154 Tallahassee Loop,,Xinxiang,62250,935508855935,199,Hami,23,China
460,659 Gatineau Boulevard,,La Paz,28587,205524798287,153,El Alto,14,Bolivia
233,356 Olomouc Manor,,Gois,93323,22326410776,26,Anápolis,15,Brazil
410,88 Nagaon Manor,,Buenos Aires,86868,779461480495,524,Tandil,6,Argentina
171,1540 Wroclaw Drive,,Maharashtra,62686,182363341674,107,Chandrapur,44,India
529,600 Purnea (Purnia) Avenue,,Nghe An,18043,638409958875,571,Vinh,105,Vietnam
569,1342 Abha Boulevard,,Bukarest,10714,997453607116,95,Bucuresti,78,Romania
66,1717 Guadalajara Lane,,Missouri,85505,914090181665,441,Saint Louis,103,United States
513,758 Korolev Parkway,,Andhra Pradesh,75474,441628280920,568,Vijayawada,44,India
408,990 Etawah Loop,,Tamil Nadu,79940,206169448769,564,Valparai,44,India
581,186 Skikda Lane,,Morelos,89422,14465669789,131,Cuernavaca,60,Mexico
128,848 Tafuna Manor,,Kütahya,45142,614935229095,281,Kütahya,97,Turkey
543,43 Vilnius Manor,,Colorado,79814,484500282381,42,Aurora,103,United States
350,1628 Nagareyama Lane,,Central,60079,20064292617,453,San Lorenzo,73,Paraguay
9,53 Idfu Parkway,,Nantou,42399,10655648674,361,Nantou,92,Taiwan
553,1421 Quilmes Lane,,Ishikawa,19151,135407755975,260,Kanazawa,50,Japan
430,355 Vitória de Santo Antão Way,,Oaxaca,81758,548003849552,452,San Juan Bautista Tuxtepec,60,Mexico
511,1152 al-Qatif Lane,,Kalimantan Barat,44816,131370665218,412,Pontianak,45,Indonesia
207,1688 Nador Lane,,Sulawesi Utara,61613,652218196731,184,Gorontalo,45,Indonesia
374,433 Florencia Street,,Chihuahua,91330,561729882725,250,Juárez,60,Mexico
394,753 Ilorin Avenue,,Sichuan,3656,464511145118,157,Emeishan,23,China
281,1944 Bamenda Way,,Michigan,24645,75975221996,573,Warren,103,United States
5,1913 Hanoi Way,,Nagasaki,35200,28303384290,463,Sasebo,50,Japan
237,1736 Cavite Place,,Qina,98775,431770603551,216,Idfu,29,Egypt
67,1214 Hanoi Way,,Nebraska,67055,491001136577,306,Lincoln,103,United States
50,46 Pjatigorsk Lane,,Moscow (City),23616,262076994845,343,Moscow,80,Russian Federation
592,1923 Stara Zagora Lane,,Nantou,95179,182178609211,546,Tsaotun,92,Taiwan
1,47 MySakila Drive,,Alberta,,,300,Lethbridge,20,Canada
33,786 Aurora Avenue,,Yamaguchi,65750,18461860151,474,Shimonoseki,50,Japan
345,68 Ponce Parkway,,Hanoi,85926,870635127812,201,Hanoi,105,Vietnam
336,430 Kumbakonam Drive,,Santa Fé,28814,105470691550,457,Santa Fé,6,Argentina
295,544 Tarsus Boulevard,,Gurico,53145,892523334,562,Valle de la Pascua,104,Venezuela
598,42 Fontana Avenue,,Fejr,14684,437829801725,512,Székesfehérvár,43,Hungary
196,9 San Miguel de Tucumán Manor,,Uttar Pradesh,90845,956188728558,169,Firozabad,44,India
168,842 Salzburg Lane,,Adana,3313,697151428760,529,Tarsus,97,Turkey
13,613 Korolev Drive,,Masqat,45844,380657522649,329,Masqat,71,Oman
429,1269 Botosani Manor,,Guangdong,47394,736517327853,468,Shanwei,23,China
277,85 San Felipe de Puerto Plata Drive,,Shandong,46063,170739645687,584,Yantai,23,China
17,270 Amroha Parkway,,Osmaniye,29610,695479687538,384,Osmaniye,97,Turkey
245,1103 Bilbays Parkway,,Hubei,87660,279979529227,578,Xi´angfan,23,China
557,1407 Pachuca de Soto Place,,Rio Grande do Sul,26284,380077794770,21,Alvorada,15,Brazil
327,1427 A Coruña (La Coruña) Place,,Buenos Aires,85799,972574862516,45,Bahía Blanca,6,Argentina
348,785 Vaduz Street,,Baja California,36170,895616862749,335,Mexicali,60,Mexico
568,1342 Sharja Way,,Sokoto & Kebbi & Zam,93655,946114054231,488,Sokoto,69,Nigeria
102,669 Firozabad Loop,,Abu Dhabi,92265,412903167998,12,al-Ayn,101,United Arab Emirates
113,682 Junan Way,,North West,30418,622255216127,273,Klerksdorp,85,South Africa
94,1952 Chatsworth Drive,,Guangdong,25958,991562402283,332,Meixian,23,China
276,1675 Xi´angfan Manor,,Tamil Nadu,11763,271149517630,283,Kumbakonam,44,India
100,1308 Arecibo Way,,Georgia,30695,6171054059,41,Augusta-Richmond County,103,United States
423,437 Chungho Drive,,Puerto Plata,59489,491271355190,450,San Felipe de Puerto Plata,27,Dominican Republic
289,1279 Udine Parkway,,Edo & Delta,75860,195003555232,69,Benin City,69,Nigeria
39,391 Callao Drive,,Midi-Pyrnes,34021,440512153169,544,Toulouse,34,France
151,1337 Lincoln Parkway,,Saitama,99457,597815221267,555,Urawa,50,Japan
140,788 Atšinsk Street,,Karnataka,81691,146497509724,211,Hubli-Dharwad,44,India
104,1913 Kamakura Place,,Lipetsk,97287,942570536750,238,Jelets,80,Russian Federation
26,28 Charlotte Amalie Street,,Rabat-Sal-Zammour-Z,37551,161968374323,443,Salé,62,Morocco
238,346 Skikda Parkway,,Hawalli,90628,630424482919,233,Jalib al-Shuyukh,53,Kuwait
205,68 Molodetšno Manor,,Nordrhein-Westfalen,4662,146640639760,575,Witten,38,Germany
453,319 Springs Loop,,Baijeri,99552,72524459905,160,Erlangen,38,Germany
332,663 Bahía Blanca Parkway,,Adana,33463,834418779292,5,Adana,97,Turkey
494,591 Sungai Petani Drive,,Okayama,46400,37247325001,376,Okayama,50,Japan
409,1266 Laredo Parkway,,Saitama,7664,1483365694,380,Omiya,50,Japan
601,844 Bucuresti Place,,Liaoning,36603,935952366111,242,Jinzhou,23,China
198,345 Oshawa Boulevard,,Tokyo-to,32114,104491201771,204,Hino,50,Japan
98,152 Kitwe Parkway,,Caraga,53182,835433605312,82,Bislig,75,Philippines
231,430 Alessandria Loop,,Saarland,47446,669828224459,439,Saarbrücken,38,Germany
120,544 Malmö Parkway,,Central Java,63502,386759646229,403,Pemalang,45,Indonesia
512,1269 Ipoh Avenue,,Eskisehir,54674,402630109080,163,Eskisehir,97,Turkey
193,891 Novi Sad Manor,,Ontario,5379,247646995453,383,Oshawa,20,Canada
480,421 Yaoundé Street,,Sumy,11363,726875628268,385,Šostka,100,Ukraine
427,1557 Cape Coral Parkway,,Hubei,46875,368284120423,293,Laohekou,23,China
142,1587 Sullana Lane,,Inner Mongolia,85769,468060467018,207,Hohhot,23,China
266,862 Xintai Lane,,Cagayan Valley,30065,265153400632,548,Tuguegarao,75,Philippines
573,1407 Surakarta Manor,,Moskova,33224,324346485054,466,Serpuhov,80,Russian Federation
57,17 Kabul Boulevard,,Chiba,38594,697760867968,355,Nagareyama,50,Japan
305,41 El Alto Parkway,,Maharashtra,56883,51917807050,398,Parbhani,44,India
45,42 Brindisi Place,,Yerevan,16744,42384721397,586,Yerevan,7,Armenia
225,1926 Gingoog Street,,Sisilia,22824,469738825391,511,Syrakusa,49,Italy
126,1175 Tanauan Way,,Lima,64615,937222955822,305,Lima,74,Peru
506,414 Mandaluyong Street,,Lubelskie,16370,52709222667,314,Lublin,76,Poland
155,1560 Jelets Boulevard,,Shandong,77777,189446090264,291,Laiwu,23,China
291,1155 Liaocheng Place,,Oyo & Osun,22650,558236142492,152,Effon-Alaiye,69,Nigeria
143,1029 Dzerzinsk Manor,,Ynlin,57519,33173584456,542,Touliu,92,Taiwan
115,1378 Alvorada Avenue,,Distrito Federal,75834,272234298332,102,Caracas,104,Venezuela
498,319 Plock Parkway,,Istanbul,26101,854259976812,504,Sultanbeyli,97,Turkey
114,804 Elista Drive,,Hubei,61069,379804592943,159,Enshi,23,China
261,51 Laredo Avenue,,Sagaing,68146,884536620568,342,Monywa,64,Myanmar
442,1245 Ibirité Way,,La Romana,40926,331888642162,290,La Romana,27,Dominican Republic
367,1163 London Parkway,,Par,6066,675120358494,66,Belém,15,Brazil
3,23 Workhaven Lane,,Alberta,,14033335568,300,Lethbridge,20,Canada
41,1440 Fukuyama Loop,,Henan,47929,912257250465,362,Nanyang,23,China
310,913 Coacalco de Berriozábal Loop,,Texas,42141,262088367001,33,Arlington,103,United States
145,928 Jaffna Loop,,Hiroshima,93762,581852137991,172,Fukuyama,50,Japan
16,808 Bhopal Manor,,Haryana,10672,465887807014,582,Yamuna Nagar,44,India
80,602 Paarl Street,,Pavlodar,98889,896314772871,402,Pavlodar,51,Kazakstan
29,934 San Felipe de Puerto Plata Street,,Sind,99780,196495945706,472,Shikarpur,72,Pakistan
28,96 Tafuna Way,,Córdoba,99865,934730187245,128,Córdoba,6,Argentina
369,817 Laredo Avenue,,Jalisco,77449,151249681135,188,Guadalajara,60,Mexico
487,1785 São Bernardo do Campo Street,,Veracruz,71182,684529463244,125,Coatzacoalcos,60,Mexico
425,1866 al-Qatif Avenue,,California,89420,546793516940,155,El Monte,103,United States
256,1497 Yuzhou Drive,,England,3433,246810237916,312,London,102,United Kingdom
552,390 Wroclaw Way,,Hainan,5753,357593328658,462,Sanya,23,China
436,287 Cuautla Boulevard,,Chuquisaca,72736,82619513349,501,Sucre,14,Bolivia
550,1715 Okayama Street,,São Paulo,55676,169352919175,485,São Bernardo do Campo,15,Brazil
149,999 Sanaa Loop,,Gauteng,3439,918032330119,491,Soshanguve,85,South Africa
272,1762 Paarl Parkway,,Hunan,53928,192459639410,298,Lengshuijiang,23,China
496,775 Šostka Drive,,al-Daqahliya,22358,171973024401,337,Mit Ghamr,29,Egypt
531,1986 Sivas Place,,Friuli-Venezia Giuli,95775,182059202712,551,Udine,49,Italy
132,1050 Garden Grove Avenue,,Slaskie,4999,973047364353,236,Jastrzebie-Zdrój,76,Poland
342,124 al-Manama Way,,Hiroshima,52368,647899404952,382,Onomichi,50,Japan
454,956 Nam Dinh Manor,,Kerman,21872,474047727727,481,Sirjan,46,Iran
346,1217 Konotop Avenue,,Gelderland,504,718917251754,151,Ede,67,Netherlands
605,1325 Fukuyama Street,,Heilongjiang,27107,288241215394,537,Tieli,23,China
121,1967 Sincelejo Place,,Gujarat,73644,577812616052,176,Gandhinagar,44,India
267,816 Cayenne Parkway,,Manab,93629,282874611748,414,Portoviejo,28,Ecuador
559,1917 Kumbakonam Parkway,,Vojvodina,11892,698182547686,368,Novi Sad,108,Yugoslavia
11,900 Santiago de Compostela Parkway,,Central Serbia,93896,716571220373,280,Kragujevac,108,Yugoslavia
333,1860 Taguig Loop,,West Java,59550,38158430589,119,Ciparay,45,Indonesia
504,1 Valle de Santiago Avenue,,Apulia,86208,465897838272,93,Brindisi,49,Italy
479,1854 Okara Boulevard,,Drenthe,42123,131912793873,158,Emmen,67,Netherlands
177,1010 Klerksdorp Way,,Steiermark,6802,493008546874,186,Graz,9,Austria
20,360 Toulouse Parkway,,England,54308,949312333307,495,Southend-on-Sea,102,United Kingdom
248,582 Papeete Loop,,Central Visayas,27722,569868543137,294,Lapu-Lapu,75,Philippines
88,125 Città del Vaticano Boulevard,,Puebla,67912,48417642933,40,Atlixco,60,Mexico
447,105 Dzerzinsk Manor,,Inner Mongolia,48570,240776414296,540,Tongliao,23,China
69,698 Otsu Street,,Cayenne,71110,409983924481,105,Cayenne,35,French Guiana
184,1410 Benin City Parkway,,Risaralda,29747,104150372603,405,Pereira,24,Colombia
187,1839 Székesfehérvár Parkway,,Gois,55709,947468818183,317,Luziânia,15,Brazil
302,922 Vila Velha Loop,,Maharashtra,4085,510737228015,9,Ahmadnagar,44,India
344,1909 Benguela Lane,,Henan,19913,624138001031,581,Xinxiang,23,China
510,48 Maracaíbo Place,,Central Luzon,1570,82671830126,519,Talavera,75,Philippines
343,1443 Mardan Street,,Western Cape,31483,231383037471,392,Paarl,85,South Africa
157,456 Escobar Way,,Jakarta Raya,36061,719202533520,232,Jakarta,45,Indonesia
362,482 Kowloon and New Kowloon Manor,,Bratislava,97056,738968474939,90,Bratislava,84,Slovakia
95,1370 Le Mans Avenue,,Brunei and Muara,52163,345679835036,53,Bandar Seri Begawan,16,Brunei
391,1793 Meixian Place,,Hmelnytskyi,33535,619966287415,258,Kamjanets-Podilskyi,100,Ukraine
319,1957 Yantai Lane,,São Paulo,59255,704948322302,490,Sorocaba,15,Brazil
105,733 Mandaluyong Place,,Asir,77459,196568435814,2,Abha,82,Saudi Arabia
236,885 Yingkou Manor,,Kaduna,31390,588964509072,596,Zaria,69,Nigeria
